{"type": "FeatureCollection", "features": [ {"type": "Feature", "properties": {"norad_id": 31225, "name": "FENGYUN 1C DEB", "group": "fengyun-1c-debris", "lat": -31.467886933099734, "lon": -114.40622053072741, "alt_km": 857.1072637874313, "timestamp": "2025-12-23T18:59:32.248229+00:00", "meta": {"OBJECT_NAME": "FENGYUN 1C DEB", "OBJECT_ID": "1999-025BLF", "EPOCH": "2025-12-23T04:33:57.129120", "MEAN_MOTION": 14.17908965, "ECCENTRICITY": 0.00881462, "INCLINATION": 98.9886, "RA_OF_ASC_NODE": 70.5446, "ARG_OF_PERICENTER": 321.1071, "MEAN_ANOMALY": 65.0632, "EPHEMERIS_TYPE": 0, "CLASSIFICATION_TYPE": "U", "NORAD_CAT_ID": 31225, "ELEMENT_SET_NO": 999, "REV_AT_EPOCH": 95970, "BSTAR": 0.0012446647, "MEAN_MOTION_DOT": 2.598e-05, "MEAN_MOTION_DDOT": 0}, "tle": {"line1": "1 31225U 99025BLF 25357.19024455  .00002598  00000+0  12447-2 0  9993", "line2": "2 31225  98.9886  70.5446 0088146 321.1071  65.0632 14.17908965959703"}}, "geometry": {"type": "Point", "coordinates": [-114.40622053072741, -31.467886933099734]}}, {"type": "Feature", "properties": {"norad_id": 31226, "name": "FENGYUN 1C DEB", "group": "fengyun-1c-debris", "lat": 4.365456126584347, "lon": -3.537283900292062, "alt_km": 890.0603169231199, "timestamp": "2025-12-23T18:59:32.248238+00:00", "meta": {"OBJECT_NAME": "FENGYUN 1C DEB", "OBJECT_ID": "1999-025BLG", "EPOCH": "2025-12-17T06:26:05.828928", "MEAN_MOTION": 14.2670123, "ECCENTRICITY": 0.01270359, "INCLINATION": 98.3503, "RA_OF_ASC_NODE": 350.8791, "ARG_OF_PERICENTER": 182.6246, "MEAN_ANOMALY": 177.4284, "EPHEMERIS_TYPE": 0, "CLASSIFICATION_TYPE": "U", "NORAD_CAT_ID": 31226, "ELEMENT_SET_NO": 999, "REV_AT_EPOCH": 62118, "BSTAR": 0.0003027873, "MEAN_MOTION_DOT": 7.56e-06, "MEAN_MOTION_DDOT": 0}, "tle": {"line1": "1 31226U 99025BLG 25351.26812302  .00000756  00000+0  30279-3 0  9990", "line2": "2 31226  98.3503 350.8791 0127035 182.6246 177.4284 14.26701230621181"}}, "geometry": {"type": "Point", "coordinates": [-3.537283900292062, 4.365456126584347]}}, {"type": "Feature", "properties": {"norad_id": 31228, "name": "FENGYUN 1C DEB", "group": "fengyun-1c-debris", "lat": 43.6858461206652, "lon": -98.63389314551226, "alt_km": 708.8956637651308, "timestamp": "2025-12-23T18:59:32.248247+00:00", "meta": {"OBJECT_NAME": "FENGYUN 1C DEB", "OBJECT_ID": "1999-025BLJ", "EPOCH": "2025-12-21T16:47:27.131712", "MEAN_MOTION": 14.36945362, "ECCENTRICITY": 0.00793636, "INCLINATION": 98.8699, "RA_OF_ASC_NODE": 267.7891, "ARG_OF_PERICENTER": 59.8965, "MEAN_ANOMALY": 330.3219, "EPHEMERIS_TYPE": 0, "CLASSIFICATION_TYPE": "U", "NORAD_CAT_ID": 31228, "ELEMENT_SET_NO": 999, "REV_AT_EPOCH": 97698, "BSTAR": 0.00041824564, "MEAN_MOTION_DOT": 1.237e-05, "MEAN_MOTION_DDOT": 0}, "tle": {"line1": "1 31228U 99025BLJ 25355.69961958  .00001237  00000+0  41825-3 0  9999", "line2": "2 31228  98.8699 267.7891 0079363  59.8965 330.3219 14.36945362976980"}}, "geometry": {"type": "Point", "coordinates": [-98.63389314551226, 43.6858461206652]}}, {"type": "Feature", "properties": {"norad_id": 31229, "name": "FENGYUN 1C DEB", "group": "fengyun-1c-debris", "lat": -37.19256078414365, "lon": 79.96008432271817, "alt_km": 804.3778725064067, "timestamp": "2025-12-23T18:59:32.248259+00:00", "meta": {"OBJECT_NAME": "FENGYUN 1C DEB", "OBJECT_ID": "1999-025BLK", "EPOCH": "2025-12-23T03:58:09.198336", "MEAN_MOTION": 14.21880658, "ECCENTRICITY": 0.00540944, "INCLINATION": 98.8666, "RA_OF_ASC_NODE": 72.5283, "ARG_OF_PERICENTER": 266.4254, "MEAN_ANOMALY": 93.0735, "EPHEMERIS_TYPE": 0, "CLASSIFICATION_TYPE": "U", "NORAD_CAT_ID": 31229, "ELEMENT_SET_NO": 999, "REV_AT_EPOCH": 96232, "BSTAR": 0.0014691413, "MEAN_MOTION_DOT": 3.243e-05, "MEAN_MOTION_DDOT": 0}, "tle": {"line1": "1 31229U 99025BLK 25357.16538424  .00003243  00000+0  14691-2 0  9991", "line2": "2 31229  98.8666  72.5283 0054094 266.4254  93.0735 14.21880658962322"}}, "geometry": {"type": "Point", "coordinates": [79.96008432271817, -37.19256078414365]}}, {"type": "Feature", "properties": {"norad_id": 31231, "name": "FENGYUN 1C DEB", "group": "fengyun-1c-debris", "lat": -40.0082103521989, "lon": 165.51506760708364, "alt_km": 685.2907528959358, "timestamp": "2025-12-23T18:59:32.248268+00:00", "meta": {"OBJECT_NAME": "FENGYUN 1C DEB", "OBJECT_ID": "1999-025BLM", "EPOCH": "2025-12-23T04:31:59.359872", "MEAN_MOTION": 14.7598115, "ECCENTRICITY": 0.01447549, "INCLINATION": 98.861, "RA_OF_ASC_NODE": 157.3309, "ARG_OF_PERICENTER": 73.4101, "MEAN_ANOMALY": 288.2947, "EPHEMERIS_TYPE": 0, "CLASSIFICATION_TYPE": "U", "NORAD_CAT_ID": 31231, "ELEMENT_SET_NO": 999, "REV_AT_EPOCH": 63175, "BSTAR": 0.0022406568, "MEAN_MOTION_DOT": 0.00018286, "MEAN_MOTION_DDOT": 0}, "tle": {"line1": "1 31231U 99025BLM 25357.18888148  .00018286  00000+0  22407-2 0  9994", "line2": "2 31231  98.8610 157.3309 0144754  73.4101 288.2947 14.75981150631756"}}, "geometry": {"type": "Point", "coordinates": [165.51506760708364, -40.0082103521989]}}, {"type": "Feature", "properties": {"norad_id": 31234, "name": "FENGYUN 1C DEB", "group": "fengyun-1c-debris", "lat": 78.95235310468692, "lon": -136.12322480384574, "alt_km": 866.5505307951798, "timestamp": "2025-12-23T18:59:32.248277+00:00", "meta": {"OBJECT_NAME": "FENGYUN 1C DEB", "OBJECT_ID": "1999-025BLQ", "EPOCH": "2025-12-21T17:04:15.155328", "MEAN_MOTION": 14.08023964, "ECCENTRICITY": 0.00734361, "INCLINATION": 98.7852, "RA_OF_ASC_NODE": 349.4757, "ARG_OF_PERICENTER": 201.3949, "MEAN_ANOMALY": 158.4147, "EPHEMERIS_TYPE": 0, "CLASSIFICATION_TYPE": "U", "NORAD_CAT_ID": 31234, "ELEMENT_SET_NO": 999, "REV_AT_EPOCH": 72846, "BSTAR": 0.00028337584, "MEAN_MOTION_DOT": 4.51e-06, "MEAN_MOTION_DDOT": 0}, "tle": {"line1": "1 31234U 99025BLQ 25355.71128652  .00000451  00000+0  28338-3 0  9996", "line2": "2 31234  98.7852 349.4757 0073436 201.3949 158.4147 14.08023964728468"}}, "geometry": {"type": "Point", "coordinates": [-136.12322480384574, 78.95235310468692]}}, {"type": "Feature", "properties": {"norad_id": 31235, "name": "FENGYUN 1C DEB", "group": "fengyun-1c-debris", "lat": 33.75298618079788, "lon": -28.716637501895185, "alt_km": 945.382412004763, "timestamp": "2025-12-23T18:59:32.248286+00:00", "meta": {"OBJECT_NAME": "FENGYUN 1C DEB", "OBJECT_ID": "1999-025BLR", "EPOCH": "2025-12-23T03:04:37.426944", "MEAN_MOTION": 14.18754869, "ECCENTRICITY": 0.01798489, "INCLINATION": 98.4674, "RA_OF_ASC_NODE": 144.9367, "ARG_OF_PERICENTER": 351.6637, "MEAN_ANOMALY": 8.1562, "EPHEMERIS_TYPE": 0, "CLASSIFICATION_TYPE": "U", "NORAD_CAT_ID": 31235, "ELEMENT_SET_NO": 999, "REV_AT_EPOCH": 63314, "BSTAR": 0.0035114563, "MEAN_MOTION_DOT": 8.532e-05, "MEAN_MOTION_DDOT": 0}, "tle": {"line1": "1 31235U 99025BLR 25357.12821096  .00008532  00000+0  35115-2 0  9994", "line2": "2 31235  98.4674 144.9367 0179848 351.6637   8.1562 14.18754869633148"}}, "geometry": {"type": "Point", "coordinates": [-28.716637501895185, 33.75298618079788]}}, {"type": "Feature", "properties": {"norad_id": 31236, "name": "FENGYUN 1C DEB", "group": "fengyun-1c-debris", "lat": 22.257306994441976, "lon": 135.5949356393144, "alt_km": 1117.7452126062353, "timestamp": "2025-12-23T18:59:32.248295+00:00", "meta": {"OBJECT_NAME": "FENGYUN 1C DEB", "OBJECT_ID": "1999-025BLS", "EPOCH": "2025-12-22T14:31:53.828832", "MEAN_MOTION": 13.8599188, "ECCENTRICITY": 0.0314943, "INCLINATION": 98.5455, "RA_OF_ASC_NODE": 310.9827, "ARG_OF_PERICENTER": 19.9015, "MEAN_ANOMALY": 341.4113, "EPHEMERIS_TYPE": 0, "CLASSIFICATION_TYPE": "U", "NORAD_CAT_ID": 31236, "ELEMENT_SET_NO": 999, "REV_AT_EPOCH": 61161, "BSTAR": 0.0056951139, "MEAN_MOTION_DOT": 9.64e-05, "MEAN_MOTION_DDOT": 0}, "tle": {"line1": "1 31236U 99025BLS 25356.60548413  .00009640  00000+0  56951-2 0  9998", "line2": "2 31236  98.5455 310.9827 0314943  19.9015 341.4113 13.85991880611616"}}, "geometry": {"type": "Point", "coordinates": [135.5949356393144, 22.257306994441976]}}, {"type": "Feature", "properties": {"norad_id": 31237, "name": "FENGYUN 1C DEB", "group": "fengyun-1c-debris", "lat": 81.4179996931939, "lon": -103.41612378644793, "alt_km": 824.2786178277493, "timestamp": "2025-12-23T18:59:32.248304+00:00", "meta": {"OBJECT_NAME": "FENGYUN 1C DEB", "OBJECT_ID": "1999-025BLT", "EPOCH": "2025-12-22T20:45:28.440000", "MEAN_MOTION": 14.31420045, "ECCENTRICITY": 0.008848, "INCLINATION": 98.4538, "RA_OF_ASC_NODE": 355.4593, "ARG_OF_PERICENTER": 318.9276, "MEAN_ANOMALY": 40.5268, "EPHEMERIS_TYPE": 0, "CLASSIFICATION_TYPE": "U", "NORAD_CAT_ID": 31237, "ELEMENT_SET_NO": 999, "REV_AT_EPOCH": 97411, "BSTAR": 0.00053118, "MEAN_MOTION_DOT": 1.428e-05, "MEAN_MOTION_DDOT": 0}, "tle": {"line1": "1 31237U 99025BLT 25356.86491250  .00001428  00000+0  53118-3 0  9992", "line2": "2 31237  98.4538 355.4593 0088480 318.9276  40.5268 14.31420045974114"}}, "geometry": {"type": "Point", "coordinates": [-103.41612378644793, 81.4179996931939]}}, {"type": "Feature", "properties": {"norad_id": 31239, "name": "FENGYUN 1C DEB", "group": "fengyun-1c-debris", "lat": 31.100227336043133, "lon": 177.77241930828666, "alt_km": 823.8028755953692, "timestamp": "2025-12-23T18:59:32.248312+00:00", "meta": {"OBJECT_NAME": "FENGYUN 1C DEB", "OBJECT_ID": "1999-025BLV", "EPOCH": "2025-12-21T22:09:05.412384", "MEAN_MOTION": 14.09873304, "ECCENTRICITY": 0.00497484, "INCLINATION": 98.7583, "RA_OF_ASC_NODE": 350.6182, "ARG_OF_PERICENTER": 171.9344, "MEAN_ANOMALY": 218.9417, "EPHEMERIS_TYPE": 0, "CLASSIFICATION_TYPE": "U", "NORAD_CAT_ID": 31239, "ELEMENT_SET_NO": 999, "REV_AT_EPOCH": 96141, "BSTAR": 0.00037911814, "MEAN_MOTION_DOT": 6.32e-06, "MEAN_MOTION_DDOT": 0}, "tle": {"line1": "1 31239U 99025BLV 25355.92297931  .00000632  00000+0  37912-3 0  9990", "line2": "2 31239  98.7583 350.6182 0049748 171.9344 218.9417 14.09873304961418"}}, "geometry": {"type": "Point", "coordinates": [177.77241930828666, 31.100227336043133]}}]}